{"type": "FeatureCollection", "features": [ {"type": "Feature", "properties": {"norad_id": 47068, "name": "COSMOS 2251 DEB", "group": "cosmos-2251-debris", "lat": 64.05423537864426, "lon": -105.19980026000218, "alt_km": 716.259694575986, "timestamp": "2025-12-04T15:47:54.497855+00:00", "meta": {"OBJECT_NAME": "COSMOS 2251 DEB", "OBJECT_ID": "1993-036BXY", "EPOCH": "2025-12-04T00:36:34.473600", "MEAN_MOTION": 14.53053719, "ECCENTRICITY": 0.00184817, "INCLINATION": 74.0246, "RA_OF_ASC_NODE": 219.9256, "ARG_OF_PERICENTER": 307.28, "MEAN_ANOMALY": 52.6676, "EPHEMERIS_TYPE": 0, "CLASSIFICATION_TYPE": "U", "NORAD_CAT_ID": 47068, "ELEMENT_SET_NO": 999, "REV_AT_EPOCH": 61630, "BSTAR": 0.0018552371, "MEAN_MOTION_DOT": 7.662e-05, "MEAN_MOTION_DDOT": 0}, "tle": {"line1": "1 47068U 93036BXY 25338.02539900  .00007662  00000+0  18552-2 0  9998", "line2": "2 47068  74.0246 219.9256 0018481 307.2800  52.6676 14.53053719616302"}}, "geometry": {"type": "Point", "coordinates": [-105.19980026000218, 64.05423537864426]}}, {"type": "Feature", "properties": {"norad_id": 47073, "name": "COSMOS 2251 DEB", "group": "cosmos-2251-debris", "lat": -17.870484052604883, "lon": 41.18417370815221, "alt_km": 817.3406828723282, "timestamp": "2025-12-04T15:47:54.497865+00:00", "meta": {"OBJECT_NAME": "COSMOS 2251 DEB", "OBJECT_ID": "1993-036BYD", "EPOCH": "2025-11-28T23:48:38.837952", "MEAN_MOTION": 14.04684181, "ECCENTRICITY": 0.01626495, "INCLINATION": 74.0833, "RA_OF_ASC_NODE": 225.7586, "ARG_OF_PERICENTER": 267.1836, "MEAN_ANOMALY": 91.0675, "EPHEMERIS_TYPE": 0, "CLASSIFICATION_TYPE": "U", "NORAD_CAT_ID": 47073, "ELEMENT_SET_NO": 999, "REV_AT_EPOCH": 60168, "BSTAR": 0.0003803633, "MEAN_MOTION_DOT": 6.6e-06, "MEAN_MOTION_DDOT": 0}, "tle": {"line1": "1 47073U 93036BYD 25332.99211618  .00000660  00000+0  38036-3 0  9998", "line2": "2 47073  74.0833 225.7586 0162649 267.1836  91.0675 14.04684181601680"}}, "geometry": {"type": "Point", "coordinates": [41.18417370815221, -17.870484052604883]}}, {"type": "Feature", "properties": {"norad_id": 47074, "name": "COSMOS 2251 DEB", "group": "cosmos-2251-debris", "lat": 3.8984771452485316, "lon": 142.3752012974634, "alt_km": 877.9525226377409, "timestamp": "2025-12-04T15:47:54.497876+00:00", "meta": {"OBJECT_NAME": "COSMOS 2251 DEB", "OBJECT_ID": "1993-036BYE", "EPOCH": "2025-12-03T18:02:52.457856", "MEAN_MOTION": 14.35498744, "ECCENTRICITY": 0.01434773, "INCLINATION": 74.091, "RA_OF_ASC_NODE": 325.1457, "ARG_OF_PERICENTER": 355.2449, "MEAN_ANOMALY": 179.085, "EPHEMERIS_TYPE": 0, "CLASSIFICATION_TYPE": "U", "NORAD_CAT_ID": 47074, "ELEMENT_SET_NO": 999, "REV_AT_EPOCH": 2553, "BSTAR": 0.0029812178, "MEAN_MOTION_DOT": 9.625e-05, "MEAN_MOTION_DDOT": 0}, "tle": {"line1": "1 47074U 93036BYE 25337.75199604  .00009625  00000+0  29812-2 0  9999", "line2": "2 47074  74.0910 325.1457 0143477 355.2449 179.0850 14.35498744 25534"}}, "geometry": {"type": "Point", "coordinates": [142.3752012974634, 3.8984771452485316]}}, {"type": "Feature", "properties": {"norad_id": 47116, "name": "COSMOS 2251 DEB", "group": "cosmos-2251-debris", "lat": 10.576200289858855, "lon": -99.82703976165784, "alt_km": 561.4893172452503, "timestamp": "2025-12-04T15:47:54.497886+00:00", "meta": {"OBJECT_NAME": "COSMOS 2251 DEB", "OBJECT_ID": "1993-036BYJ", "EPOCH": "2025-11-28T02:40:22.126944", "MEAN_MOTION": 14.97052334, "ECCENTRICITY": 0.00224176, "INCLINATION": 74.0247, "RA_OF_ASC_NODE": 270.3586, "ARG_OF_PERICENTER": 5.4926, "MEAN_ANOMALY": 12.2387, "EPHEMERIS_TYPE": 0, "CLASSIFICATION_TYPE": "U", "NORAD_CAT_ID": 47116, "ELEMENT_SET_NO": 999, "REV_AT_EPOCH": 59292, "BSTAR": 0.0024991708, "MEAN_MOTION_DOT": 0.00029033, "MEAN_MOTION_DDOT": 0}, "tle": {"line1": "1 47116U 93036BYJ 25332.11136721  .00029033  00000+0  24992-2 0  9991", "line2": "2 47116  74.0247 270.3586 0022417   5.4926  12.2387 14.97052334592926"}}, "geometry": {"type": "Point", "coordinates": [-99.82703976165784, 10.576200289858855]}}, {"type": "Feature", "properties": {"norad_id": 53093, "name": "COSMOS 2251 DEB", "group": "cosmos-2251-debris", "lat": 23.945643337725834, "lon": -36.26322005130124, "alt_km": 738.5338943181132, "timestamp": "2025-12-04T15:47:54.497897+00:00", "meta": {"OBJECT_NAME": "COSMOS 2251 DEB", "OBJECT_ID": "1993-036BYP", "EPOCH": "2025-12-04T00:41:46.059648", "MEAN_MOTION": 14.41798306, "ECCENTRICITY": 0.00186538, "INCLINATION": 74.036, "RA_OF_ASC_NODE": 317.5991, "ARG_OF_PERICENTER": 36.9058, "MEAN_ANOMALY": 323.3378, "EPHEMERIS_TYPE": 0, "CLASSIFICATION_TYPE": "U", "NORAD_CAT_ID": 53093, "ELEMENT_SET_NO": 999, "REV_AT_EPOCH": 17600, "BSTAR": 0.0017148029, "MEAN_MOTION_DOT": 5.592e-05, "MEAN_MOTION_DDOT": 0}, "tle": {"line1": "1 53093U 93036BYP 25338.02900532  .00005592  00000+0  17148-2 0  9996", "line2": "2 53093  74.0360 317.5991 0018653  36.9058 323.3378 14.41798306176007"}}, "geometry": {"type": "Point", "coordinates": [-36.26322005130124, 23.945643337725834]}}]}